[
  {
    "COMMENT": "GENERATED VIA SPACETRACK.ORG API",
    "ORIGINATOR": "18 SPCS",
    "NORAD_CAT_ID": "43682",
    "OBJECT_NAME": "H-2A R/B",
    "OBJECT_TYPE": "ROCKET BODY",
    "CLASSIFICATION_TYPE": "U",
    "INTLDES": "18084L",
    "EPOCH": "2023-06-03 07:11:49",
    "EPOCH_MICROSECONDS": "828128",
    "MEAN_MOTION": "15.08389699",
    "ECCENTRICITY": "0.0051061",
    "INCLINATION": "98.8939",
    "RA_OF_ASC_NODE": "176.2432",
    "ARG_OF_PERICENTER": "187.9874",
    "MEAN_ANOMALY": "172.0542",
    "EPHEMERIS_TYPE": "0",
    "ELEMENT_SET_NO": "999",
    "REV_AT_EPOCH": "25212",
    "BSTAR": "0.00028502",
    "MEAN_MOTION_DOT": "0.00004481",
    "MEAN_MOTION_DDOT": "0",
    "FILE": "3923878",
    "TLE_LINE0": "0 H-2A R/B",
    "TLE_LINE1": "1 43682U 18084L   23154.29988227  .00004481  00000-0  28502-3 0  9993",
    "TLE_LINE2": "2 43682  98.8939 176.2432 0051061 187.9874 172.0542 15.08389699252124",
    "OBJECT_ID": "2018-084L",
    "OBJECT_NUMBER": "43682",
    "SEMIMAJOR_AXIS": "6919.257",
    "PERIOD": "95.466",
    "APOGEE": "576.453",
    "PERIGEE": "505.792",
    "DECAYED": "0"
  },
  {
    "COMMENT": "GENERATED VIA SPACETRACK.ORG API",
    "ORIGINATOR": "18 SPCS",
    "NORAD_CAT_ID": "43682",
    "OBJECT_NAME": "H-2A R/B",
    "OBJECT_TYPE": "ROCKET BODY",
    "CLASSIFICATION_TYPE": "U",
    "INTLDES": "18084L",
    "EPOCH": "2023-06-03 13:33:55",
    "EPOCH_MICROSECONDS": "739808",
    "MEAN_MOTION": "15.0839154",
    "ECCENTRICITY": "0.0051074",
    "INCLINATION": "98.8939",
    "RA_OF_ASC_NODE": "176.5503",
    "ARG_OF_PERICENTER": "187.1245",
    "MEAN_ANOMALY": "172.9259",
    "EPHEMERIS_TYPE": "0",
    "ELEMENT_SET_NO": "999",
    "REV_AT_EPOCH": "25216",
    "BSTAR": "0.00027129",
    "MEAN_MOTION_DOT": "0.00004261",
    "MEAN_MOTION_DDOT": "0",
    "FILE": "3924076",
    "TLE_LINE0": "0 H-2A R/B",
    "TLE_LINE1": "1 43682U 18084L   23154.56522847  .00004261  00000-0  27129-3 0  9995",
    "TLE_LINE2": "2 43682  98.8939 176.5503 0051074 187.1245 172.9259 15.08391540252160",
    "OBJECT_ID": "2018-084L",
    "OBJECT_NUMBER": "43682",
    "SEMIMAJOR_AXIS": "6919.251",
    "PERIOD": "95.466",
    "APOGEE": "576.456",
    "PERIGEE": "505.777",
    "DECAYED": "0"
  },
  {
    "COMMENT": "GENERATED VIA SPACETRACK.ORG API",
    "ORIGINATOR": "18 SPCS",
    "NORAD_CAT_ID": "43682",
    "OBJECT_NAME": "H-2A R/B",
    "OBJECT_TYPE": "ROCKET BODY",
    "CLASSIFICATION_TYPE": "U",
    "INTLDES": "18084L",
    "EPOCH": "2023-06-03 19:56:01",
    "EPOCH_MICROSECONDS": "610016",
    "MEAN_MOTION": "15.08394097",
    "ECCENTRICITY": "0.0051107",
    "INCLINATION": "98.8938",
    "RA_OF_ASC_NODE": "176.8573",
    "ARG_OF_PERICENTER": "186.2801",
    "MEAN_ANOMALY": "173.7788",
    "EPHEMERIS_TYPE": "0",
    "ELEMENT_SET_NO": "999",
    "REV_AT_EPOCH": "25220",
    "BSTAR": "0.00028338",
    "MEAN_MOTION_DOT": "0.00004455",
    "MEAN_MOTION_DDOT": "0",
    "FILE": "3924324",
    "TLE_LINE0": "0 H-2A R/B",
    "TLE_LINE1": "1 43682U 18084L   23154.83057419  .00004455  00000-0  28338-3 0  9991",
    "TLE_LINE2": "2 43682  98.8938 176.8573 0051107 186.2801 173.7788 15.08394097252205",
    "OBJECT_ID": "2018-084L",
    "OBJECT_NUMBER": "43682",
    "SEMIMAJOR_AXIS": "6919.244",
    "PERIOD": "95.466",
    "APOGEE": "576.471",
    "PERIGEE": "505.746",
    "DECAYED": "0"
  },
  {
    "COMMENT": "GENERATED VIA SPACETRACK.ORG API",
    "ORIGINATOR": "18 SPCS",
    "NORAD_CAT_ID": "43682",
    "OBJECT_NAME": "H-2A R/B",
    "OBJECT_TYPE": "ROCKET BODY",
    "CLASSIFICATION_TYPE": "U",
    "INTLDES": "18084L",
    "EPOCH": "2023-06-04 13:26:47",
    "EPOCH_MICROSECONDS": "607936",
    "MEAN_MOTION": "15.08400108",
    "ECCENTRICITY": "0.0051148",
    "INCLINATION": "98.8937",
    "RA_OF_ASC_NODE": "177.7017",
    "ARG_OF_PERICENTER": "183.9297",
    "MEAN_ANOMALY": "176.1533",
    "EPHEMERIS_TYPE": "0",
    "ELEMENT_SET_NO": "999",
    "REV_AT_EPOCH": "25231",
    "BSTAR": "0.0002832",
    "MEAN_MOTION_DOT": "0.00004453",
    "MEAN_MOTION_DDOT": "0",
    "FILE": "3924842",
    "TLE_LINE0": "0 H-2A R/B",
    "TLE_LINE1": "1 43682U 18084L   23155.56027324  .00004453  00000-0  28320-3 0  9993",
    "TLE_LINE2": "2 43682  98.8937 177.7017 0051148 183.9297 176.1533 15.08400108252313",
    "OBJECT_ID": "2018-084L",
    "OBJECT_NUMBER": "43682",
    "SEMIMAJOR_AXIS": "6919.225",
    "PERIOD": "95.465",
    "APOGEE": "576.481",
    "PERIGEE": "505.700",
    "DECAYED": "0"
  },
  {
    "COMMENT": "GENERATED VIA SPACETRACK.ORG API",
    "ORIGINATOR": "18 SPCS",
    "NORAD_CAT_ID": "43682",
    "OBJECT_NAME": "H-2A R/B",
    "OBJECT_TYPE": "ROCKET BODY",
    "CLASSIFICATION_TYPE": "U",
    "INTLDES": "18084L",
    "EPOCH": "2023-06-04 15:02:19",
    "EPOCH_MICROSECONDS": "50432",
    "MEAN_MOTION": "15.08400689",
    "ECCENTRICITY": "0.0051152",
    "INCLINATION": "98.8937",
    "RA_OF_ASC_NODE": "177.7785",
    "ARG_OF_PERICENTER": "183.7155",
    "MEAN_ANOMALY": "176.3697",
    "EPHEMERIS_TYPE": "0",
    "ELEMENT_SET_NO": "999",
    "REV_AT_EPOCH": "25232",
    "BSTAR": "0.00028576",
    "MEAN_MOTION_DOT": "0.00004494",
    "MEAN_MOTION_DDOT": "0",
    "FILE": "3924962",
    "TLE_LINE0": "0 H-2A R/B",
    "TLE_LINE1": "1 43682U 18084L   23155.62660938  .00004494  00000-0  28576-3 0  9992",
    "TLE_LINE2": "2 43682  98.8937 177.7785 0051152 183.7155 176.3697 15.08400689252329",
    "OBJECT_ID": "2018-084L",
    "OBJECT_NUMBER": "43682",
    "SEMIMAJOR_AXIS": "6919.224",
    "PERIOD": "95.465",
    "APOGEE": "576.482",
    "PERIGEE": "505.695",
    "DECAYED": "0"
  },
  {
    "COMMENT": "GENERATED VIA SPACETRACK.ORG API",
    "ORIGINATOR": "18 SPCS",
    "NORAD_CAT_ID": "43682",
    "OBJECT_NAME": "H-2A R/B",
    "OBJECT_TYPE": "ROCKET BODY",
    "CLASSIFICATION_TYPE": "U",
    "INTLDES": "18084L",
    "EPOCH": "2023-06-04 15:02:19",
    "EPOCH_MICROSECONDS": "50432",
    "MEAN_MOTION": "15.08400689",
    "ECCENTRICITY": "0.0051152",
    "INCLINATION": "98.8937",
    "RA_OF_ASC_NODE": "177.7785",
    "ARG_OF_PERICENTER": "183.7155",
    "MEAN_ANOMALY": "176.3697",
    "EPHEMERIS_TYPE": "0",
    "ELEMENT_SET_NO": "999",
    "REV_AT_EPOCH": "25232",
    "BSTAR": "0.00028576",
    "MEAN_MOTION_DOT": "0.00004494",
    "MEAN_MOTION_DDOT": "0",
    "FILE": "3925173",
    "TLE_LINE0": "0 H-2A R/B",
    "TLE_LINE1": "1 43682U 18084L   23155.62660938  .00004494  00000-0  28576-3 0  9992",
    "TLE_LINE2": "2 43682  98.8937 177.7785 0051152 183.7155 176.3697 15.08400689252329",
    "OBJECT_ID": "2018-084L",
    "OBJECT_NUMBER": "43682",
    "SEMIMAJOR_AXIS": "6919.224",
    "PERIOD": "95.465",
    "APOGEE": "576.482",
    "PERIGEE": "505.695",
    "DECAYED": "0"
  },
  {
    "COMMENT": "GENERATED VIA SPACETRACK.ORG API",
    "ORIGINATOR": "18 SPCS",
    "NORAD_CAT_ID": "43682",
    "OBJECT_NAME": "H-2A R/B",
    "OBJECT_TYPE": "ROCKET BODY",
    "CLASSIFICATION_TYPE": "U",
    "INTLDES": "18084L",
    "EPOCH": "2023-06-05 13:19:38",
    "EPOCH_MICROSECONDS": "951616",
    "MEAN_MOTION": "15.08410163",
    "ECCENTRICITY": "0.0051228",
    "INCLINATION": "98.8937",
    "RA_OF_ASC_NODE": "178.8533",
    "ARG_OF_PERICENTER": "180.7376",
    "MEAN_ANOMALY": "179.3781",
    "EPHEMERIS_TYPE": "0",
    "ELEMENT_SET_NO": "999",
    "REV_AT_EPOCH": "25246",
    "BSTAR": "0.00032301",
    "MEAN_MOTION_DOT": "0.00005094",
    "MEAN_MOTION_DDOT": "0",
    "FILE": "3925691",
    "TLE_LINE0": "0 H-2A R/B",
    "TLE_LINE1": "1 43682U 18084L   23156.55531194  .00005094  00000-0  32301-3 0  9994",
    "TLE_LINE2": "2 43682  98.8937 178.8533 0051228 180.7376 179.3781 15.08410163252468",
    "OBJECT_ID": "2018-084L",
    "OBJECT_NUMBER": "43682",
    "SEMIMAJOR_AXIS": "6919.195",
    "PERIOD": "95.465",
    "APOGEE": "576.505",
    "PERIGEE": "505.614",
    "DECAYED": "0"
  },
  {
    "COMMENT": "GENERATED VIA SPACETRACK.ORG API",
    "ORIGINATOR": "18 SPCS",
    "NORAD_CAT_ID": "43682",
    "OBJECT_NAME": "H-2A R/B",
    "OBJECT_TYPE": "ROCKET BODY",
    "CLASSIFICATION_TYPE": "U",
    "INTLDES": "18084L",
    "EPOCH": "2023-06-05 21:17:15",
    "EPOCH_MICROSECONDS": "914400",
    "MEAN_MOTION": "15.08414291",
    "ECCENTRICITY": "0.0051271",
    "INCLINATION": "98.8937",
    "RA_OF_ASC_NODE": "179.237",
    "ARG_OF_PERICENTER": "179.6774",
    "MEAN_ANOMALY": "180.4493",
    "EPHEMERIS_TYPE": "0",
    "ELEMENT_SET_NO": "999",
    "REV_AT_EPOCH": "25251",
    "BSTAR": "0.00034792",
    "MEAN_MOTION_DOT": "0.00005495",
    "MEAN_MOTION_DDOT": "0",
    "FILE": "3925751",
    "TLE_LINE0": "0 H-2A R/B",
    "TLE_LINE1": "1 43682U 18084L   23156.88698975  .00005495  00000-0  34792-3 0  9992",
    "TLE_LINE2": "2 43682  98.8937 179.2370 0051271 179.6774 180.4493 15.08414291252514",
    "OBJECT_ID": "2018-084L",
    "OBJECT_NUMBER": "43682",
    "SEMIMAJOR_AXIS": "6919.182",
    "PERIOD": "95.464",
    "APOGEE": "576.522",
    "PERIGEE": "505.572",
    "DECAYED": "0"
  }
]